NORAD_CAT_ID,OBJECT_NAME,OBJECT_TYPE,EPOCH,MEAN_MOTION,ECCENTRICITY,INCLINATION,RA_OF_ASC_NODE,ARG_OF_PERICENTER,MEAN_ANOMALY,BSTAR,MEAN_MOTION_DOT,MEAN_MOTION_DDOT,TLE_LINE0,TLE_LINE1,TLE_LINE2,SEMIMAJOR_AXIS,PERIOD,APOGEE,PERIGEE,DECAYED
55768.0,STARLINK-5583,PAYLOAD,2023-09-13 16:54:31,14.98324797,0.000264,70.0033,353.8912,266.441,93.6447,0.00026764,3.101e-05,0.0,0 STARLINK-5583,1 55768U 23028AD  23256.70453178  .00003101  00000-0  26764-3 0  9992,2 55768  70.0033 353.8912 0002640 266.4410  93.6447 14.98324797 30518,6950.209,96.107,573.909,570.239,0.0
55768.0,STARLINK-5583,PAYLOAD,2023-09-14 10:32:02,14.98315325,0.0003117,70.0021,352.0397,269.0669,91.0133,-0.00023216,-2.861e-05,0.0,0 STARLINK-5583,1 55768U 23028AD  23257.43891291 -.00002861  00000-0 -23216-3 0  9998,2 55768  70.0021 352.0397 0003117 269.0669  91.0133 14.98315325 30621,6950.238,96.108,574.27,569.937,0.0
55768.0,STARLINK-5583,PAYLOAD,2023-09-14 12:08:10,14.98310187,0.0003015,70.0023,351.8711,269.3157,90.7656,-0.00028782,-3.524e-05,0.0,0 STARLINK-5583,1 55768U 23028AD  23257.50567887 -.00003524  00000-0 -28782-3 0  9997,2 55768  70.0023 351.8711 0003015 269.3157  90.7656 14.98310187 30641,6950.254,96.108,574.215,570.024,0.0
55768.0,STARLINK-5583,PAYLOAD,2023-09-14 15:20:26,14.98314883,0.0003195,70.0017,351.5355,265.3635,94.716,-0.00024296,-2.99e-05,0.0,0 STARLINK-5583,1 55768U 23028AD  23257.63919533 -.00002990  00000-0 -24296-3 0  9992,2 55768  70.0017 351.5355 0003195 265.3635  94.7160 14.98314883 30664,6950.24,96.108,574.325,569.884,0.0
55768.0,STARLINK-5583,PAYLOAD,2023-09-15 10:34:02,14.98325725,0.0003091,70.0022,349.5154,264.1789,95.9018,-7.0916e-05,-9.39e-06,0.0,0 STARLINK-5583,1 55768U 23028AD  23258.44030987 -.00000939  00000-0 -70916-4 0  9991,2 55768  70.0022 349.5154 0003091 264.1789  95.9018 14.98325725 30770,6950.206,96.107,574.219,569.923,0.0
55768.0,STARLINK-5583,PAYLOAD,2023-09-15 13:46:18,14.9832593,0.000287,70.0029,349.1797,255.3563,104.7278,-5.8777e-05,-7.94e-06,0.0,0 STARLINK-5583,1 55768U 23028AD  23258.57382991 -.00000794  00000-0 -58777-4 0  9990,2 55768  70.0029 349.1797 0002870 255.3563 104.7278 14.98325930 30801,6950.205,96.107,574.065,570.076,0.0
55768.0,STARLINK-5583,PAYLOAD,2023-09-15 15:22:26,14.98339593,0.0002774,70.0024,349.0109,253.5504,106.5351,-0.00025401,-3.123e-05,0.0,0 STARLINK-5583,1 55768U 23028AD  23258.64058625 -.00003123  00000-0 -25401-3 0  9998,2 55768  70.0024 349.0109 0002774 253.5504 106.5351 14.98339593 30802,6950.163,96.106,573.956,570.1,0.0
55768.0,STARLINK-5583,PAYLOAD,2023-09-15 23:23:06,14.98350802,0.0003183,70.0028,348.1685,259.182,100.8981,-0.00030255,-3.703e-05,0.0,0 STARLINK-5583,1 55768U 23028AD  23258.97437972 -.00003703  00000-0 -30255-3 0  9997,2 55768  70.0028 348.1685 0003183 259.1820 100.8981 14.98350802 30850,6950.129,96.106,574.206,569.781,0.0
55768.0,STARLINK-5583,PAYLOAD,2023-09-16 08:59:54,14.9832511,0.0003227,70.0021,347.1591,264.5933,95.4858,0.00030863,3.591e-05,0.0,0 STARLINK-5583,1 55768U 23028AD  23259.37494109  .00003591  00000-0  30863-3 0  9995,2 55768  70.0021 347.1591 0003227 264.5933  95.4858 14.98325110 30915,6950.208,96.107,574.316,569.83,0.0
55768.0,STARLINK-5583,PAYLOAD,2023-09-16 13:48:18,14.98327898,0.000293,70.0028,346.6552,252.7735,107.3103,0.00030852,3.59e-05,0.0,0 STARLINK-5583,1 55768U 23028AD  23259.57521934  .00003590  00000-0  30852-3 0  9991,2 55768  70.0028 346.6552 0002930 252.7735 107.3103 14.98327898 30957,6950.199,96.107,574.101,570.028,0.0
55768.0,STARLINK-5583,PAYLOAD,2023-09-17 12:14:12,14.98329897,0.0002889,70.0018,344.2953,256.1399,103.9439,3.9327e-05,3.76e-06,0.0,0 STARLINK-5583,1 55768U 23028AD  23260.50986434  .00000376  00000-0  39327-4 0  9992,2 55768  70.0018 344.2953 0002889 256.1399 103.9439 14.98329897 31093,6950.193,96.107,574.066,570.05,0.0
55768.0,STARLINK-5583,PAYLOAD,2023-09-18 10:40:04,14.98338358,0.0003212,70.0019,341.9402,270.396,89.6831,-6.3591e-05,-8.52e-06,0.0,0 STARLINK-5583,1 55768U 23028AD  23261.44449762 -.00000852  00000-0 -63591-4 0  9995,2 55768  70.0019 341.9402 0003212 270.3960  89.6831 14.98338358 31223,6950.167,96.106,574.264,569.8,0.0
55768.0,STARLINK-5583,PAYLOAD,2023-09-18 13:52:20,14.98342056,0.0002838,70.0021,341.6035,262.8074,97.2762,-4.2162e-05,-5.96e-06,0.0,0 STARLINK-5583,1 55768U 23028AD  23261.57801378 -.00000596  00000-0 -42162-4 0  9990,2 55768  70.0021 341.6035 0002838 262.8074  97.2762 14.98342056 31251,6950.156,96.106,573.993,570.048,0.0
55768.0,STARLINK-5583,PAYLOAD,2023-09-18 15:28:28,14.98343502,0.0003039,70.002,341.4356,269.5809,90.5002,-3.2983e-05,-4.87e-06,0.0,0 STARLINK-5583,1 55768U 23028AD  23261.64477230 -.00000487  00000-0 -32983-4 0  9993,2 55768  70.0020 341.4356 0003039 269.5809  90.5002 14.98343502 31269,6950.151,96.106,574.128,569.904,0.0
55768.0,STARLINK-5583,PAYLOAD,2023-09-19 09:05:56,14.98335088,0.0003089,70.0022,339.5838,273.2693,86.8112,4.4824e-05,4.42e-06,0.0,0 STARLINK-5583,1 55768U 23028AD  23262.37913097  .00000442  00000-0  44824-4 0  9996,2 55768  70.0022 339.5838 0003089 273.2693  86.8112 14.98335088 31363,6950.177,96.107,574.189,569.895,0.0
55768.0,STARLINK-5583,PAYLOAD,2023-09-19 15:30:28,14.98338924,0.0002769,70.0023,338.9105,267.4962,92.588,0.00014117,1.592e-05,0.0,0 STARLINK-5583,1 55768U 23028AD  23262.64616459  .00001592  00000-0  14117-3 0  9996,2 55768  70.0023 338.9105 0002769 267.4962  92.5880 14.98338924 31405,6950.165,96.106,573.955,570.106,0.0
55768.0,STARLINK-5583,PAYLOAD,2023-09-20 09:07:59,14.98320504,0.0003084,70.0015,337.0592,269.1811,90.8995,-0.00016929,-2.112e-05,0.0,0 STARLINK-5583,1 55768U 23028AD  23263.38054445 -.00002112  00000-0 -16929-3 0  9993,2 55768  70.0015 337.0592 0003084 269.1811  90.8995 14.98320504 31514,6950.222,96.108,574.231,569.944,0.0
55768.0,STARLINK-5583,PAYLOAD,2023-09-20 13:56:23,14.98318767,0.0002911,70.0021,336.5561,257.1294,102.954,-0.00016065,-2.009e-05,0.0,0 STARLINK-5583,1 55768U 23028AD  23263.58082578 -.00002009  00000-0 -16065-3 0  9999,2 55768  70.0021 336.5561 0002911 257.1294 102.9540 14.98318767 31554,6950.228,96.108,574.116,570.069,0.0
55768.0,STARLINK-5583,PAYLOAD,2023-09-20 15:32:31,14.98318468,0.000293,70.002,336.3874,260.6706,99.4122,-0.00016325,-2.04e-05,0.0,0 STARLINK-5583,1 55768U 23028AD  23263.64758661 -.00002040  00000-0 -16325-3 0  9993,2 55768  70.0020 336.3874 0002930 260.6706  99.4122 14.98318468 31561,6950.229,96.108,574.13,570.057,0.0
55768.0,STARLINK-5583,PAYLOAD,2023-09-21 10:46:07,14.98329429,0.0003155,70.0012,334.3665,270.828,89.2517,-9.2127e-05,-1.192e-05,0.0,0 STARLINK-5583,1 55768U 23028AD  23264.44870040 -.00001192  00000-0 -92127-4 0  9990,2 55768  70.0012 334.3665 0003155 270.8280  89.2517 14.98329429 31674,6950.195,96.107,574.252,569.867,0.0
55768.0,STARLINK-5583,PAYLOAD,2023-09-21 12:22:15,14.98328552,0.0003123,70.0013,334.1984,269.6236,90.4565,-9.2204e-05,-1.193e-05,0.0,0 STARLINK-5583,1 55768U 23028AD  23264.51546126 -.00001193  00000-0 -92204-4 0  9990,2 55768  70.0013 334.1984 0003123 269.6236  90.4565 14.98328552 31694,6950.197,96.107,574.233,569.892,0.0
55768.0,STARLINK-5583,PAYLOAD,2023-09-21 15:34:32,14.98326848,0.0003069,70.0013,333.8616,268.2707,91.8101,-0.00010181,-1.307e-05,0.0,0 STARLINK-5583,1 55768U 23028AD  23264.64898285 -.00001307  00000-0 -10181-3 0  9990,2 55768  70.0013 333.8616 0003069 268.2707  91.8101 14.98326848 31719,6950.203,96.107,574.201,569.935,0.0
55768.0,STARLINK-5583,PAYLOAD,2023-09-21 21:59:03,14.98358187,0.0003197,70.0013,333.188,269.6358,90.4435,-0.000529,-6.404e-05,0.0,0 STARLINK-5583,1 55768U 23028AD  23264.91601325 -.00006404  00000-0 -52900-3 0  9995,2 55768  70.0013 333.1880 0003197 269.6358  90.4435 14.98358187 31743,6950.106,96.105,574.193,569.749,0.0
55768.0,STARLINK-5583,PAYLOAD,2023-09-22 10:48:08,14.98326075,0.0003569,70.0005,331.8406,277.9353,82.1401,0.00021748,2.503e-05,0.0,0 STARLINK-5583,1 55768U 23028AD  23265.45009587  .00002503  00000-0  21748-3 0  9997,2 55768  70.0005 331.8406 0003569 277.9353  82.1401 14.98326075 31824,6950.205,96.107,574.551,569.59,0.0
55768.0,STARLINK-5583,PAYLOAD,2023-09-22 12:24:15,14.98330479,0.0003498,70.0005,331.6724,277.6688,82.4074,0.00025868,2.995e-05,0.0,0 STARLINK-5583,1 55768U 23028AD  23265.51685183  .00002995  00000-0  25868-3 0  9998,2 55768  70.0005 331.6724 0003498 277.6688  82.4074 14.98330479 31848,6950.191,96.107,574.488,569.625,0.0
55768.0,STARLINK-5583,PAYLOAD,2023-09-22 14:00:23,14.9833431,0.0003428,70.0004,331.5044,274.952,85.1247,0.00023782,2.746e-05,0.0,0 STARLINK-5583,1 55768U 23028AD  23265.58360965  .00002746  00000-0  23782-3 0  9990,2 55768  70.0004 331.5044 0003428 274.9520  85.1247 14.98334310 31849,6950.18,96.107,574.427,569.662,0.0
55768.0,STARLINK-5583,PAYLOAD,2023-09-22 22:01:05,14.98325905,0.0002826,70.0021,330.6632,278.4185,81.6654,0.00012892,1.445e-05,0.0,0 STARLINK-5583,1 55768U 23028AD  23265.91741987  .00001445  00000-0  12892-3 0  9999,2 55768  70.0021 330.6632 0002826 278.4185  81.6654 14.98325905 31908,6950.206,96.107,574.035,570.106,0.0
55768.0,STARLINK-5583,PAYLOAD,2023-09-23 12:26:17,14.98332729,0.000313,70.0006,329.1469,269.9247,90.1554,6.0304e-05,6.27e-06,0.0,0 STARLINK-5583,1 55768U 23028AD  23266.51825447  .00000627  00000-0  60304-4 0  9993,2 55768  70.0006 329.1469 0003130 269.9247  90.1554 14.98332729 31990,6950.184,96.107,574.225,569.874,0.0
55768.0,STARLINK-5583,PAYLOAD,2023-09-23 14:02:25,14.98333691,0.0003295,70.0006,328.9789,274.4387,85.6395,8.21e-05,8.87e-06,0.0,0 STARLINK-5583,1 55768U 23028AD  23266.58501319  .00000887  00000-0  82100-4 0  9995,2 55768  70.0006 328.9789 0003295 274.4387  85.6395 14.98333691 31991,6950.181,96.107,574.337,569.756,0.0
55768.0,STARLINK-5583,PAYLOAD,2023-09-23 22:03:06,14.98325195,0.0002951,70.0016,328.1376,279.0989,80.9836,7.1202e-05,7.57e-06,0.0,0 STARLINK-5583,1 55768U 23028AD  23266.91881978  .00000757  00000-0  71202-4 0  9991,2 55768  70.0016 328.1376 0002951 279.0989  80.9836 14.98325195 32048,6950.208,96.107,574.124,570.022,0.0
